{
    "links": {
        "self": "http://www.neowsapp.com/rest/v1/neo/3831072?api_key=iIulBulltgU6a56xZRHN4H3l9WmuAYTsLGpBGhQ2"
    },
    "id": "3831072",
    "neo_reference_id": "3831072",
    "name": "(2018 SL3)",
    "designation": "2018 SL3",
    "nasa_jpl_url": "http://ssd.jpl.nasa.gov/sbdb.cgi?sstr=3831072",
    "absolute_magnitude_h": 24.5,
    "estimated_diameter": {
        "kilometers": {
            "estimated_diameter_min": 0.0334622374,
            "estimated_diameter_max": 0.0748238376
        },
        "meters": {
            "estimated_diameter_min": 33.4622374455,
            "estimated_diameter_max": 74.8238376074
        },
        "miles": {
            "estimated_diameter_min": 0.0207924639,
            "estimated_diameter_max": 0.0464933628
        },
        "feet": {
            "estimated_diameter_min": 109.7842471007,
            "estimated_diameter_max": 245.4850393757
        }
    },
    "is_potentially_hazardous_asteroid": false,
    "close_approach_data": [
        {
            "close_approach_date": "2018-10-15",
            "close_approach_date_full": "2018-Oct-15 14:36",
            "epoch_date_close_approach": 1539614160000,
            "relative_velocity": {
                "kilometers_per_second": "13.4260866431",
                "kilometers_per_hour": "48333.9119152043",
                "miles_per_hour": "30032.8132119779"
            },
            "miss_distance": {
                "astronomical": "0.023187229",
                "lunar": "9.019832081",
                "kilometers": "3468760.06960223",
                "miles": "2155387.560601574"
            },
            "orbiting_body": "Earth"
        },
        {
            "close_approach_date": "2018-12-01",
            "close_approach_date_full": "2018-Dec-01 04:09",
            "epoch_date_close_approach": 1543637340000,
            "relative_velocity": {
                "kilometers_per_second": "7.6266313755",
                "kilometers_per_hour": "27455.8729519383",
                "miles_per_hour": "17060.0117239419"
            },
            "miss_distance": {
                "astronomical": "0.0564386189",
                "lunar": "21.9546227521",
                "kilometers": "8443097.173181743",
                "miles": "5246297.3093763334"
            },
            "orbiting_body": "Venus"
        },
        {
            "close_approach_date": "2020-08-21",
            "close_approach_date_full": "2020-Aug-21 18:02",
            "epoch_date_close_approach": 1598032920000,
            "relative_velocity": {
                "kilometers_per_second": "12.9694898224",
                "kilometers_per_hour": "46690.1633606472",
                "miles_per_hour": "29011.451783731"
            },
            "miss_distance": {
                "astronomical": "0.0954420501",
                "lunar": "37.1269574889",
                "kilometers": "14277927.403393287",
                "miles": "8871892.6933378806"
            },
            "orbiting_body": "Mars"
        },
        {
            "close_approach_date": "2020-10-09",
            "close_approach_date_full": "2020-Oct-09 14:14",
            "epoch_date_close_approach": 1602252840000,
            "relative_velocity": {
                "kilometers_per_second": "15.7501864728",
                "kilometers_per_hour": "56700.6713021794",
                "miles_per_hour": "35231.5921210681"
            },
            "miss_distance": {
                "astronomical": "0.0678630061",
                "lunar": "26.3987093729",
                "kilometers": "10152161.164357007",
                "miles": "6308260.4296084166"
            },
            "orbiting_body": "Earth"
        },
        {
            "close_approach_date": "2142-02-17",
            "close_approach_date_full": "2142-Feb-17 11:34",
            "epoch_date_close_approach": 5431923240000,
            "relative_velocity": {
                "kilometers_per_second": "10.0469502349",
                "kilometers_per_hour": "36169.0208457113",
                "miles_per_hour": "22474.0229804921"
            },
            "miss_distance": {
                "astronomical": "0.1525415816",
                "lunar": "59.3386752424",
                "kilometers": "22819895.693791192",
                "miles": "14179625.6661427696"
            },
            "orbiting_body": "Earth"
        }
    ],
    "orbital_data": {
        "orbit_id": "8",
        "orbit_determination_date": "2018-10-19 07:04:28",
        "first_observation_date": "2018-09-30",
        "last_observation_date": "2018-10-13",
        "data_arc_in_days": 13,
        "observations_used": 53,
        "orbit_uncertainty": "8",
        "minimum_orbit_intersection": ".0192734",
        "jupiter_tisserand_invariant": "4.230",
        "epoch_osculation": "2458395.5",
        "eccentricity": ".523823179374642",
        "semi_major_axis": "1.580053335903254",
        "inclination": "4.070617104063762",
        "ascending_node_longitude": "5.378279015003658",
        "orbital_period": "725.447598861546",
        "perihelion_distance": ".7523847739089026",
        "perihelion_argument": "89.37669494533489",
        "aphelion_distance": "2.407721897897606",
        "perihelion_time": "2458455.434554671331",
        "mean_anomaly": "330.2577557420559",
        "mean_motion": ".4962453533031917",
        "equinox": "J2000",
        "orbit_class": {
            "orbit_class_type": "APO",
            "orbit_class_description": "Near-Earth asteroid orbits which cross the Earth’s orbit similar to that of 1862 Apollo",
            "orbit_class_range": "a (semi-major axis) > 1.0 AU; q (perihelion) < 1.017 AU"
        }
    },
    "is_sentry_object": false
}